IRIDIUM 149             
1 43250U 18030B   24098.92226303  .00000093  00000+0  26202-4 0  9993
2 43250  86.3918 264.8059 0001985  89.9748 270.1676 14.34217346315455
IRIDIUM 157             
1 43251U 18030C   24098.94128871  .00000099  00000+0  28383-4 0  9995
2 43251  86.3920 264.8334 0002055  99.8892 260.2535 14.34217784315432
IRIDIUM 140             
1 43252U 18030D   24098.89054928  .00000016  00000+0 -13658-5 0  9991
2 43252  86.3920 264.8695 0002185  85.1115 275.0330 14.34217084315488
IRIDIUM 145             
1 43253U 18030E   24098.94763329 -.00000026  00000+0 -16417-4 0  9997
2 43253  86.3921 264.8195 0001955  83.7590 276.3829 14.34217486315427
IRIDIUM 148             
1 43255U 18030G   24098.89689030  .00000106  00000+0  30711-4 0  9999
2 43255  86.3922 264.8866 0001767  90.6666 269.4732 14.34218764315467
